{
  "type": "FeatureCollection",
  "features": [
    {
      "type": "Feature",
      "properties": {
        "norad_id": 66477,
        "name": "STARLINK-35354",
        "group": "last-30-days",
        "lat": 9.263190479834654,
        "lon": -61.868538733494155,
        "alt_km": 380.5885222341776,
        "timestamp": "2025-12-02T23:34:14.290794+00:00",
        "meta_object_name": "STARLINK-35354",
        "meta_object_id": "2025-262X",
        "meta_epoch": "2025-12-02T12:00:05.998752",
        "meta_mean_motion": 15.64295779,
        "meta_eccentricity": 0.0001599,
        "meta_inclination": 42.9992,
        "meta_ra_of_asc_node": 131.0858,
        "meta_arg_of_pericenter": 268.8808,
        "meta_mean_anomaly": 61.4767,
        "meta_ephemeris_type": 0,
        "meta_classification_type": "U",
        "meta_norad_cat_id": 66477,
        "meta_element_set_no": 999,
        "meta_rev_at_epoch": 399,
        "meta_bstar": -0.02458,
        "meta_mean_motion_dot": -0.0210727,
        "meta_mean_motion_ddot": 0,
        "tle_line1": "1 66477U 25262X   25336.50006943 -.02107270  00000+0 -24580-1 0  9993",
        "tle_line2": "2 66477  42.9992 131.0858 0001599 268.8808  61.4767 15.64295779  3994"
      },
      "geometry": {
        "type": "Point",
        "coordinates": [
          -61.868538733494155,
          9.263190479834654
        ]
      }
    },
    {
      "type": "Feature",
      "properties": {
        "norad_id": 66478,
        "name": "STARLINK-35283",
        "group": "last-30-days",
        "lat": 7.974757045650661,
        "lon": -60.440132347934316,
        "alt_km": 380.64386586841647,
        "timestamp": "2025-12-02T23:34:14.290804+00:00",
        "meta_object_name": "STARLINK-35283",
        "meta_object_id": "2025-262Y",
        "meta_epoch": "2025-12-02T12:00:05.998752",
        "meta_mean_motion": 15.64292612,
        "meta_eccentricity": 0.0001726,
        "meta_inclination": 42.9993,
        "meta_ra_of_asc_node": 131.0805,
        "meta_arg_of_pericenter": 265.932,
        "meta_mean_anomaly": 66.3375,
        "meta_ephemeris_type": 0,
        "meta_classification_type": "U",
        "meta_norad_cat_id": 66478,
        "meta_element_set_no": 999,
        "meta_rev_at_epoch": 399,
        "meta_bstar": -0.024451,
        "meta_mean_motion_dot": -0.02097492,
        "meta_mean_motion_ddot": 0,
        "tle_line1": "1 66478U 25262Y   25336.50006943 -.02097492  00000+0 -24451-1 0  9995",
        "tle_line2": "2 66478  42.9993 131.0805 0001726 265.9320  66.3375 15.64292612  3999"
      },
      "geometry": {
        "type": "Point",
        "coordinates": [
          -60.440132347934316,
          7.974757045650661
        ]
      }
    },
    {
      "type": "Feature",
      "properties": {
        "norad_id": 66479,
        "name": "STARLINK-35581",
        "group": "last-30-days",
        "lat": 10.548037188920567,
        "lon": -63.31085577768726,
        "alt_km": 380.4489687668365,
        "timestamp": "2025-12-02T23:34:14.290813+00:00",
        "meta_object_name": "STARLINK-35581",
        "meta_object_id": "2025-262Z",
        "meta_epoch": "2025-12-02T12:00:05.998752",
        "meta_mean_motion": 15.64298486,
        "meta_eccentricity": 0.0001649,
        "meta_inclination": 42.9991,
        "meta_ra_of_asc_node": 131.0902,
        "meta_arg_of_pericenter": 269.0691,
        "meta_mean_anomaly": 59.3654,
        "meta_ephemeris_type": 0,
        "meta_classification_type": "U",
        "meta_norad_cat_id": 66479,
        "meta_element_set_no": 999,
        "meta_rev_at_epoch": 399,
        "meta_bstar": -0.024568,
        "meta_mean_motion_dot": -0.02106638,
        "meta_mean_motion_ddot": 0,
        "tle_line1": "1 66479U 25262Z   25336.50006943 -.02106638  00000+0 -24568-1 0  9998",
        "tle_line2": "2 66479  42.9991 131.0902 0001649 269.0691  59.3654 15.64298486  3993"
      },
      "geometry": {
        "type": "Point",
        "coordinates": [
          -63.31085577768726,
          10.548037188920567
        ]
      }
    },
    {
      "type": "Feature",
      "properties": {
        "norad_id": 66480,
        "name": "STARLINK-35670",
        "group": "last-30-days",
        "lat": 6.6809766462231,
        "lon": -59.01995587203122,
        "alt_km": 380.8080139026142,
        "timestamp": "2025-12-02T23:34:14.290823+00:00",
        "meta_object_name": "STARLINK-35670",
        "meta_object_id": "2025-262AA",
        "meta_epoch": "2025-12-02T12:00:05.998752",
        "meta_mean_motion": 15.64289166,
        "meta_eccentricity": 0.0001802,
        "meta_inclination": 42.9994,
        "meta_ra_of_asc_node": 131.0755,
        "meta_arg_of_pericenter": 266.9607,
        "meta_mean_anomaly": 67.2243,
        "meta_ephemeris_type": 0,
        "meta_classification_type": "U",
        "meta_norad_cat_id": 66480,
        "meta_element_set_no": 999,
        "meta_rev_at_epoch": 399,
        "meta_bstar": -0.024365,
        "meta_mean_motion_dot": -0.02090916,
        "meta_mean_motion_ddot": 0,
        "tle_line1": "1 66480U 25262AA  25336.50006943 -.02090916  00000+0 -24365-1 0  9996",
        "tle_line2": "2 66480  42.9994 131.0755 0001802 266.9607  67.2243 15.64289166  3995"
      },
      "geometry": {
        "type": "Point",
        "coordinates": [
          -59.01995587203122,
          6.6809766462231
        ]
      }
    },
    {
      "type": "Feature",
      "properties": {
        "norad_id": 66481,
        "name": "STARLINK-35698",
        "group": "last-30-days",
        "lat": 5.380546602108675,
        "lon": -57.60492682592647,
        "alt_km": 381.06059226346133,
        "timestamp": "2025-12-02T23:34:14.290833+00:00",
        "meta_object_name": "STARLINK-35698",
        "meta_object_id": "2025-262AB",
        "meta_epoch": "2025-12-02T12:00:05.998752",
        "meta_mean_motion": 15.64295626,
        "meta_eccentricity": 0.000166,
        "meta_inclination": 42.999,
        "meta_ra_of_asc_node": 131.0702,
        "meta_arg_of_pericenter": 270.5284,
        "meta_mean_anomaly": 65.5784,
        "meta_ephemeris_type": 0,
        "meta_classification_type": "U",
        "meta_norad_cat_id": 66481,
        "meta_element_set_no": 999,
        "meta_rev_at_epoch": 399,
        "meta_bstar": -0.024561,
        "meta_mean_motion_dot": -0.02105889,
        "meta_mean_motion_ddot": 0,
        "tle_line1": "1 66481U 25262AB  25336.50006943 -.02105889  00000+0 -24561-1 0  9991",
        "tle_line2": "2 66481  42.9990 131.0702 0001660 270.5284  65.5784 15.64295626  3997"
      },
      "geometry": {
        "type": "Point",
        "coordinates": [
          -57.60492682592647,
          5.380546602108675
        ]
      }
    },
    {
      "type": "Feature",
      "properties": {
        "norad_id": 66482,
        "name": "STARLINK-35648",
        "group": "last-30-days",
        "lat": 4.078673598438763,
        "lon": -56.19710415088196,
        "alt_km": 381.2146463688323,
        "timestamp": "2025-12-02T23:34:14.290843+00:00",
        "meta_object_name": "STARLINK-35648",
        "meta_object_id": "2025-262AC",
        "meta_epoch": "2025-12-02T12:00:05.998752",
        "meta_mean_motion": 15.64305867,
        "meta_eccentricity": 0.0001659,
        "meta_inclination": 42.9992,
        "meta_ra_of_asc_node": 131.0656,
        "meta_arg_of_pericenter": 270.5652,
        "meta_mean_anomaly": 67.4554,
        "meta_ephemeris_type": 0,
        "meta_classification_type": "U",
        "meta_norad_cat_id": 66482,
        "meta_element_set_no": 999,
        "meta_rev_at_epoch": 383,
        "meta_bstar": -0.02474,
        "meta_mean_motion_dot": -0.0211994,
        "meta_mean_motion_ddot": 0,
        "tle_line1": "1 66482U 25262AC  25336.50006943 -.02119940  00000+0 -24740-1 0  9994",
        "tle_line2": "2 66482  42.9992 131.0656 0001659 270.5652  67.4554 15.64305867  3833"
      },
      "geometry": {
        "type": "Point",
        "coordinates": [
          -56.19710415088196,
          4.078673598438763
        ]
      }
    },
    {
      "type": "Feature",
      "properties": {
        "norad_id": 66483,
        "name": "STARLINK-35654",
        "group": "last-30-days",
        "lat": 2.7735632907171666,
        "lon": -54.793918227009534,
        "alt_km": 381.33436865965086,
        "timestamp": "2025-12-02T23:34:14.290855+00:00",
        "meta_object_name": "STARLINK-35654",
        "meta_object_id": "2025-262AD",
        "meta_epoch": "2025-12-02T12:00:05.998752",
        "meta_mean_motion": 15.64300776,
        "meta_eccentricity": 0.0001611,
        "meta_inclination": 42.9995,
        "meta_ra_of_asc_node": 131.0601,
        "meta_arg_of_pericenter": 270.6987,
        "meta_mean_anomaly": 69.2405,
        "meta_ephemeris_type": 0,
        "meta_classification_type": "U",
        "meta_norad_cat_id": 66483,
        "meta_element_set_no": 999,
        "meta_rev_at_epoch": 399,
        "meta_bstar": -0.024644,
        "meta_mean_motion_dot": -0.02112419,
        "meta_mean_motion_ddot": 0,
        "tle_line1": "1 66483U 25262AD  25336.50006943 -.02112419  00000+0 -24644-1 0  9992",
        "tle_line2": "2 66483  42.9995 131.0601 0001611 270.6987  69.2405 15.64300776  3993"
      },
      "geometry": {
        "type": "Point",
        "coordinates": [
          -54.793918227009534,
          2.7735632907171666
        ]
      }
    }
  ]
}